{
    "links": {
        "self": "http://www.neowsapp.com/rest/v1/neo/3595985?api_key=iIulBulltgU6a56xZRHN4H3l9WmuAYTsLGpBGhQ2"
    },
    "id": "3595985",
    "neo_reference_id": "3595985",
    "name": "(2012 BL11)",
    "designation": "2012 BL11",
    "nasa_jpl_url": "http://ssd.jpl.nasa.gov/sbdb.cgi?sstr=3595985",
    "absolute_magnitude_h": 25.8,
    "estimated_diameter": {
        "kilometers": {
            "estimated_diameter_min": 0.0183888672,
            "estimated_diameter_max": 0.0411187571
        },
        "meters": {
            "estimated_diameter_min": 18.388867207,
            "estimated_diameter_max": 41.1187571041
        },
        "miles": {
            "estimated_diameter_min": 0.0114263088,
            "estimated_diameter_max": 0.0255500032
        },
        "feet": {
            "estimated_diameter_min": 60.3309310875,
            "estimated_diameter_max": 134.9040630575
        }
    },
    "is_potentially_hazardous_asteroid": false,
    "close_approach_data": [
        {
            "close_approach_date": "2012-01-18",
            "close_approach_date_full": "2012-Jan-18 19:54",
            "epoch_date_close_approach": 1326916440000,
            "relative_velocity": {
                "kilometers_per_second": "5.852449488",
                "kilometers_per_hour": "21068.8181566802",
                "miles_per_hour": "13091.3442596327"
            },
            "miss_distance": {
                "astronomical": "0.0934599196",
                "lunar": "36.3559087244",
                "kilometers": "13981404.902531252",
                "miles": "8687642.1551131976"
            },
            "orbiting_body": "Earth"
        }
    ],
    "orbital_data": {
        "orbit_id": "4",
        "orbit_determination_date": "2017-04-06 08:51:23",
        "first_observation_date": "2012-01-19",
        "last_observation_date": "2012-01-20",
        "data_arc_in_days": 1,
        "observations_used": 8,
        "orbit_uncertainty": "9",
        "minimum_orbit_intersection": ".075174",
        "jupiter_tisserand_invariant": "5.128",
        "epoch_osculation": "2455946.5",
        "eccentricity": ".1533122505593474",
        "semi_major_axis": "1.245412599818492",
        "inclination": "10.85397012670768",
        "ascending_node_longitude": "299.5663074309751",
        "orbital_period": "507.6545810692221",
        "perihelion_distance": "1.054475591265351",
        "perihelion_argument": "163.6589113315888",
        "aphelion_distance": "1.436349608371633",
        "perihelion_time": "2455927.155994768749",
        "mean_anomaly": "13.71767761571877",
        "mean_motion": ".7091436055629952",
        "equinox": "J2000",
        "orbit_class": {
            "orbit_class_type": "AMO",
            "orbit_class_description": "Near-Earth asteroid orbits similar to that of 1221 Amor",
            "orbit_class_range": "1.017 AU < q (perihelion) < 1.3 AU"
        }
    },
    "is_sentry_object": false
}